GLOBALSTAR M045         
1 25676U 99019A   24362.57243810 -.00000090  00000+0  29284-4 0  9999
2 25676  51.9980  74.4052 0000721 163.6556 345.1831 12.27053925172566
GLOBALSTAR M019         
1 25677U 99019B   24362.81707731 -.00000018  00000+0  75094-3 0  9993
2 25677  51.9852 192.0151 0001368  41.5029 331.7182 12.13871822164525
GLOBALSTAR M044         
1 25678U 99019C   24362.79833660 -.00000037  00000+0  65397-3 0  9998
2 25678  51.9958 121.9852 0007367  77.7457  57.3544 11.90246339150894
GLOBALSTAR M042         
1 25679U 99019D   24362.81213569 -.00000030  00000+0  58011-3 0  9990
2 25679  51.9982 174.7474 0001898 323.3863 169.9162 12.22075762164372
GLOBALSTAR M025         
1 25770U 99031A   24362.29740858 -.00000027  00000+0  12562-2 0  9990
2 25770  51.9775 197.4669 0001145 156.2468  14.5789 11.22558382462409
GLOBALSTAR M049         
1 25771U 99031B   24362.58468177 -.00000045  00000+0  71862-3 0  9993
2 25771  51.9846 222.9414 0004644  83.4730 276.6595 11.12111753 98330
GLOBALSTAR M047         
1 25772U 99031C   24362.39081060 -.00000066  00000+0  11024-3 0  9992
2 25772  51.9815 236.7647 0016160 332.1989  27.7952 11.31925907451659
GLOBALSTAR M052         
1 25773U 99031D   24362.49226160 -.00000022  00000+0  14807-2 0  9999
2 25773  51.9898 334.2406 0002258 252.6978 261.3148 11.15056151459351
